UNKNOWN                 
1 83903U          25345.86921679 -.00000256  00000+0  00000+0 0  9992
2 83903   6.1873 290.6277 0124053 251.5228 318.2043  0.99112879 43658
UNKNOWN                 
1 83934U          25344.85026985 -.00000109  00000+0  00000+0 0  9997
2 83934   5.7866 297.5267 0232633 273.3759 209.9167  1.02662909 45260
UNKNOWN                 
1 83970U          25345.89906624  .00007996  00000+0  89373-2 0  9992
2 83970  18.2623 220.1604 5068416 142.7690 266.4241  5.32023457196164
UNKNOWN                 
1 84006U          25342.94811084 -.00000044  00000+0  00000+0 0  9996
2 84006  22.4615 178.3059 6147968  59.4088 347.1938  2.16233493 84143
UNKNOWN                 
1 84188U          25345.89009226  .00483470  00000+0  25572+0 0  9999
2 84188  65.1665 258.8195 3785986  18.7912 352.1200  7.54769932 41204
UNKNOWN                 
1 84232U          25344.94398804  .00011999  00000+0  99481-2 0  9993
2 84232  20.3242 275.2459 6561709  62.5321 348.3711  3.17161402104637
UNKNOWN                 
1 84236U          25343.56048229  .00000584  00000+0  43682-2 0  9997
2 84236   9.4466 336.4617 6895252  91.5164 341.7354  2.62521322113891
UNKNOWN                 
1 84292U          25343.14543195  .00004329  00000+0  23844-2 0  9994
2 84292  23.8474 165.3015 4565536 231.3629  78.1844  6.21471633227844
UNKNOWN                 
1 84406U          25344.68568743  .00000996  00000+0  54284-2 0  9995
2 84406 101.7175 128.8030 0040104  42.6195 331.9484 12.67327549 49038
UNKNOWN                 
1 84407U          25342.07922719  .00000290  00000+0  19402-1 0  9993
2 84407  19.4986 323.8623 7201971  59.3632 352.3088  2.05763792 75770
UNKNOWN                 
1 84575U          25341.84606383 -.00000008  00000+0  41193-2 0  9990
2 84575  18.1313 160.0863 7099925  19.5657 357.6594  2.19885753 65352
UNKNOWN                 
1 84932U          25346.26492572  .00001129  00000+0  87248-2 0  9996
2 84932   2.0633 245.2536 6575500  53.9292 171.7636  2.99948850131760
