CCSDS_OMM_VERS = 2.0
CREATION_DATE  = 
ORIGINATOR     = 

OBJECT_NAME    = UNKNOWN
OBJECT_ID      = 
CENTER_NAME    = EARTH
REF_FRAME      = TEME
TIME_SYSTEM    = UTC
MEAN_ELEMENT_THEORY = SGP/SGP4

EPOCH          = 2025-12-11T20:51:40.330656
MEAN_MOTION    = 0.99112879
ECCENTRICITY   = .0124053
INCLINATION    = 6.1873
RA_OF_ASC_NODE = 290.6277
ARG_OF_PERICENTER = 251.5228
MEAN_ANOMALY   = 318.2043

EPHEMERIS_TYPE = 0
CLASSIFICATION_TYPE = U
NORAD_CAT_ID   = 83903
ELEMENT_SET_NO = 999
REV_AT_EPOCH   = 4365
BSTAR          = 0
MEAN_MOTION_DOT = -.256E-5
MEAN_MOTION_DDOT = 0

CCSDS_OMM_VERS = 2.0
CREATION_DATE  = 
ORIGINATOR     = 

OBJECT_NAME    = UNKNOWN
OBJECT_ID      = 
CENTER_NAME    = EARTH
REF_FRAME      = TEME
TIME_SYSTEM    = UTC
MEAN_ELEMENT_THEORY = SGP/SGP4

EPOCH          = 2025-12-10T20:24:23.315040
MEAN_MOTION    = 1.02662909
ECCENTRICITY   = .0232633
INCLINATION    = 5.7866
RA_OF_ASC_NODE = 297.5267
ARG_OF_PERICENTER = 273.3759
MEAN_ANOMALY   = 209.9167

EPHEMERIS_TYPE = 0
CLASSIFICATION_TYPE = U
NORAD_CAT_ID   = 83934
ELEMENT_SET_NO = 999
REV_AT_EPOCH   = 4526
BSTAR          = 0
MEAN_MOTION_DOT = -.109E-5
MEAN_MOTION_DDOT = 0

CCSDS_OMM_VERS = 2.0
CREATION_DATE  = 
ORIGINATOR     = 

OBJECT_NAME    = UNKNOWN
OBJECT_ID      = 
CENTER_NAME    = EARTH
REF_FRAME      = TEME
TIME_SYSTEM    = UTC
MEAN_ELEMENT_THEORY = SGP/SGP4

EPOCH          = 2025-12-11T21:34:39.323136
MEAN_MOTION    = 5.32023457
ECCENTRICITY   = .5068416
INCLINATION    = 18.2623
RA_OF_ASC_NODE = 220.1604
ARG_OF_PERICENTER = 142.7690
MEAN_ANOMALY   = 266.4241

EPHEMERIS_TYPE = 0
CLASSIFICATION_TYPE = U
NORAD_CAT_ID   = 83970
ELEMENT_SET_NO = 999
REV_AT_EPOCH   = 19616
BSTAR          = .89373E-2
MEAN_MOTION_DOT = .7996E-4
MEAN_MOTION_DDOT = 0

CCSDS_OMM_VERS = 2.0
CREATION_DATE  = 
ORIGINATOR     = 

OBJECT_NAME    = UNKNOWN
OBJECT_ID      = 
CENTER_NAME    = EARTH
REF_FRAME      = TEME
TIME_SYSTEM    = UTC
MEAN_ELEMENT_THEORY = SGP/SGP4

EPOCH          = 2025-12-08T22:45:16.776576
MEAN_MOTION    = 2.16233493
ECCENTRICITY   = .6147968
INCLINATION    = 22.4615
RA_OF_ASC_NODE = 178.3059
ARG_OF_PERICENTER = 59.4088
MEAN_ANOMALY   = 347.1938

EPHEMERIS_TYPE = 0
CLASSIFICATION_TYPE = U
NORAD_CAT_ID   = 84006
ELEMENT_SET_NO = 999
REV_AT_EPOCH   = 8414
BSTAR          = 0
MEAN_MOTION_DOT = -.44E-6
MEAN_MOTION_DDOT = 0

CCSDS_OMM_VERS = 2.0
CREATION_DATE  = 
ORIGINATOR     = 

OBJECT_NAME    = UNKNOWN
OBJECT_ID      = 
CENTER_NAME    = EARTH
REF_FRAME      = TEME
TIME_SYSTEM    = UTC
MEAN_ELEMENT_THEORY = SGP/SGP4

EPOCH          = 2025-12-11T21:21:43.971264
MEAN_MOTION    = 7.54769932
ECCENTRICITY   = .3785986
INCLINATION    = 65.1665
RA_OF_ASC_NODE = 258.8195
ARG_OF_PERICENTER = 18.7912
MEAN_ANOMALY   = 352.1200

EPHEMERIS_TYPE = 0
CLASSIFICATION_TYPE = U
NORAD_CAT_ID   = 84188
ELEMENT_SET_NO = 999
REV_AT_EPOCH   = 4120
BSTAR          = .25572E+0
MEAN_MOTION_DOT = .48347E-2
MEAN_MOTION_DDOT = 0

CCSDS_OMM_VERS = 2.0
CREATION_DATE  = 
ORIGINATOR     = 

OBJECT_NAME    = UNKNOWN
OBJECT_ID      = 
CENTER_NAME    = EARTH
REF_FRAME      = TEME
TIME_SYSTEM    = UTC
MEAN_ELEMENT_THEORY = SGP/SGP4

EPOCH          = 2025-12-10T22:39:20.566656
MEAN_MOTION    = 3.17161402
ECCENTRICITY   = .6561709
INCLINATION    = 20.3242
RA_OF_ASC_NODE = 275.2459
ARG_OF_PERICENTER = 62.5321
MEAN_ANOMALY   = 348.3711

EPHEMERIS_TYPE = 0
CLASSIFICATION_TYPE = U
NORAD_CAT_ID   = 84232
ELEMENT_SET_NO = 999
REV_AT_EPOCH   = 10463
BSTAR          = .99481E-2
MEAN_MOTION_DOT = .11999E-3
MEAN_MOTION_DDOT = 0

CCSDS_OMM_VERS = 2.0
CREATION_DATE  = 
ORIGINATOR     = 

OBJECT_NAME    = UNKNOWN
OBJECT_ID      = 
CENTER_NAME    = EARTH
REF_FRAME      = TEME
TIME_SYSTEM    = UTC
MEAN_ELEMENT_THEORY = SGP/SGP4

EPOCH          = 2025-12-09T13:27:05.669856
MEAN_MOTION    = 2.62521322
ECCENTRICITY   = .6895252
INCLINATION    = 9.4466
RA_OF_ASC_NODE = 336.4617
ARG_OF_PERICENTER = 91.5164
MEAN_ANOMALY   = 341.7354

EPHEMERIS_TYPE = 0
CLASSIFICATION_TYPE = U
NORAD_CAT_ID   = 84236
ELEMENT_SET_NO = 999
REV_AT_EPOCH   = 11389
BSTAR          = .43682E-2
MEAN_MOTION_DOT = .584E-5
MEAN_MOTION_DDOT = 0

CCSDS_OMM_VERS = 2.0
CREATION_DATE  = 
ORIGINATOR     = 

OBJECT_NAME    = UNKNOWN
OBJECT_ID      = 
CENTER_NAME    = EARTH
REF_FRAME      = TEME
TIME_SYSTEM    = UTC
MEAN_ELEMENT_THEORY = SGP/SGP4

EPOCH          = 2025-12-09T03:29:25.320480
MEAN_MOTION    = 6.21471633
ECCENTRICITY   = .4565536
INCLINATION    = 23.8474
RA_OF_ASC_NODE = 165.3015
ARG_OF_PERICENTER = 231.3629
MEAN_ANOMALY   = 78.1844

EPHEMERIS_TYPE = 0
CLASSIFICATION_TYPE = U
NORAD_CAT_ID   = 84292
ELEMENT_SET_NO = 999
REV_AT_EPOCH   = 22784
BSTAR          = .23844E-2
MEAN_MOTION_DOT = .4329E-4
MEAN_MOTION_DDOT = 0

CCSDS_OMM_VERS = 2.0
CREATION_DATE  = 
ORIGINATOR     = 

OBJECT_NAME    = UNKNOWN
OBJECT_ID      = 
CENTER_NAME    = EARTH
REF_FRAME      = TEME
TIME_SYSTEM    = UTC
MEAN_ELEMENT_THEORY = SGP/SGP4

EPOCH          = 2025-12-10T16:27:23.393952
MEAN_MOTION    = 12.67327549
ECCENTRICITY   = .0040104
INCLINATION    = 101.7175
RA_OF_ASC_NODE = 128.8030
ARG_OF_PERICENTER = 42.6195
MEAN_ANOMALY   = 331.9484

EPHEMERIS_TYPE = 0
CLASSIFICATION_TYPE = U
NORAD_CAT_ID   = 84406
ELEMENT_SET_NO = 999
REV_AT_EPOCH   = 4903
BSTAR          = .54284E-2
MEAN_MOTION_DOT = .996E-5
MEAN_MOTION_DDOT = 0

CCSDS_OMM_VERS = 2.0
CREATION_DATE  = 
ORIGINATOR     = 

OBJECT_NAME    = UNKNOWN
OBJECT_ID      = 
CENTER_NAME    = EARTH
REF_FRAME      = TEME
TIME_SYSTEM    = UTC
MEAN_ELEMENT_THEORY = SGP/SGP4

EPOCH          = 2025-12-08T01:54:05.229216
MEAN_MOTION    = 2.05763792
ECCENTRICITY   = .7201971
INCLINATION    = 19.4986
RA_OF_ASC_NODE = 323.8623
ARG_OF_PERICENTER = 59.3632
MEAN_ANOMALY   = 352.3088

EPHEMERIS_TYPE = 0
CLASSIFICATION_TYPE = U
NORAD_CAT_ID   = 84407
ELEMENT_SET_NO = 999
REV_AT_EPOCH   = 7577
BSTAR          = .19402E-1
MEAN_MOTION_DOT = .29E-5
MEAN_MOTION_DDOT = 0

CCSDS_OMM_VERS = 2.0
CREATION_DATE  = 
ORIGINATOR     = 

OBJECT_NAME    = UNKNOWN
OBJECT_ID      = 
CENTER_NAME    = EARTH
REF_FRAME      = TEME
TIME_SYSTEM    = UTC
MEAN_ELEMENT_THEORY = SGP/SGP4

EPOCH          = 2025-12-07T20:18:19.914912
MEAN_MOTION    = 2.19885753
ECCENTRICITY   = .7099925
INCLINATION    = 18.1313
RA_OF_ASC_NODE = 160.0863
ARG_OF_PERICENTER = 19.5657
MEAN_ANOMALY   = 357.6594

EPHEMERIS_TYPE = 0
CLASSIFICATION_TYPE = U
NORAD_CAT_ID   = 84575
ELEMENT_SET_NO = 999
REV_AT_EPOCH   = 6535
BSTAR          = .41193E-2
MEAN_MOTION_DOT = -.8E-7
MEAN_MOTION_DDOT = 0

CCSDS_OMM_VERS = 2.0
CREATION_DATE  = 
ORIGINATOR     = 

OBJECT_NAME    = UNKNOWN
OBJECT_ID      = 
CENTER_NAME    = EARTH
REF_FRAME      = TEME
TIME_SYSTEM    = UTC
MEAN_ELEMENT_THEORY = SGP/SGP4

EPOCH          = 2025-12-12T06:21:29.582208
MEAN_MOTION    = 2.99948850
ECCENTRICITY   = .65755
INCLINATION    = 2.0633
RA_OF_ASC_NODE = 245.2536
ARG_OF_PERICENTER = 53.9292
MEAN_ANOMALY   = 171.7636

EPHEMERIS_TYPE = 0
CLASSIFICATION_TYPE = U
NORAD_CAT_ID   = 84932
ELEMENT_SET_NO = 999
REV_AT_EPOCH   = 13176
BSTAR          = .87248E-2
MEAN_MOTION_DOT = .1129E-4
MEAN_MOTION_DDOT = 0

